[{"OBJECT_NAME":"STARLINK-5548","OBJECT_ID":"2023-058T","EPOCH":"2026-03-09T21:34:59.195136","MEAN_MOTION":15.0565475,"ECCENTRICITY":0.00016208,"INCLINATION":97.6035,"RA_OF_ASC_NODE":71.5075,"ARG_OF_PERICENTER":88.5983,"MEAN_ANOMALY":271.5429,"EPHEMERIS_TYPE":0,"CLASSIFICATION_TYPE":"U","NORAD_CAT_ID":56334,"ELEMENT_SET_NO":999,"REV_AT_EPOCH":15823,"BSTAR":0.00042818172,"MEAN_MOTION_DOT":6.124e-5,"MEAN_MOTION_DDOT":0},{"OBJECT_NAME":"DELTA 1 DEB","OBJECT_ID":"1977-065GM","EPOCH":"2026-03-08T23:45:45.164448","MEAN_MOTION":14.64470388,"ECCENTRICITY":0.03371849,"INCLINATION":29.2751,"RA_OF_ASC_NODE":329.7443,"ARG_OF_PERICENTER":142.9017,"MEAN_ANOMALY":219.5388,"EPHEMERIS_TYPE":0,"CLASSIFICATION_TYPE":"U","NORAD_CAT_ID":39100,"ELEMENT_SET_NO":999,"REV_AT_EPOCH":71741,"BSTAR":0.001056012,"MEAN_MOTION_DOT":0.00013572,"MEAN_MOTION_DDOT":0}]
